[{"CCSDS_OMM_VERS":"3.0","COMMENT":"GENERATED VIA SPACE-TRACK.ORG API","CREATION_DATE":"2026-05-16T10:38:26","ORIGINATOR":"18 SPCS","OBJECT_NAME":"QZS-2","OBJECT_ID":"2017-028A","CENTER_NAME":"EARTH","REF_FRAME":"TEME","TIME_SYSTEM":"UTC","MEAN_ELEMENT_THEORY":"SGP4","EPOCH":"2026-05-15T14:49:38.867808","MEAN_MOTION":"1.00292474","ECCENTRICITY":"0.07623408","INCLINATION":"39.4779","RA_OF_ASC_NODE":"243.6336","ARG_OF_PERICENTER":"268.9240","MEAN_ANOMALY":"83.1436","EPHEMERIS_TYPE":"0","CLASSIFICATION_TYPE":"U","NORAD_CAT_ID":"42738","ELEMENT_SET_NO":"999","REV_AT_EPOCH":"730","BSTAR":"0.00000000000000","MEAN_MOTION_DOT":"-0.00000183","MEAN_MOTION_DDOT":"0.0000000000000","SEMIMAJOR_AXIS":"42158.933","PERIOD":"1435.801","APOAPSIS":"38994.746","PERIAPSIS":"32566.850","OBJECT_TYPE":"PAYLOAD","RCS_SIZE":"LARGE","COUNTRY_CODE":"JPN","LAUNCH_DATE":"2017-06-01","SITE":"TNSTA","DECAY_DATE":null,"FILE":"5196540","GP_ID":"323438950","TLE_LINE0":"0 QZS-2","TLE_LINE1":"1 42738U 17028A   26135.61781097 -.00000183  00000-0  00000-0 0  9991","TLE_LINE2":"2 42738  39.4779 243.6336 0762341 268.9240  83.1436  1.00292474  7300"},{"CCSDS_OMM_VERS":"3.0","COMMENT":"GENERATED VIA SPACE-TRACK.ORG API","CREATION_DATE":"2026-05-18T10:14:28","ORIGINATOR":"18 SPCS","OBJECT_NAME":"QZS-2","OBJECT_ID":"2017-028A","CENTER_NAME":"EARTH","REF_FRAME":"TEME","TIME_SYSTEM":"UTC","MEAN_ELEMENT_THEORY":"SGP4","EPOCH":"2026-05-17T14:43:23.609280","MEAN_MOTION":"1.00291921","ECCENTRICITY":"0.07622233","INCLINATION":"39.4747","RA_OF_ASC_NODE":"243.6045","ARG_OF_PERICENTER":"268.9413","MEAN_ANOMALY":"83.6963","EPHEMERIS_TYPE":"0","CLASSIFICATION_TYPE":"U","NORAD_CAT_ID":"42738","ELEMENT_SET_NO":"999","REV_AT_EPOCH":"732","BSTAR":"0.00000000000000","MEAN_MOTION_DOT":"-0.00000182","MEAN_MOTION_DDOT":"0.0000000000000","SEMIMAJOR_AXIS":"42159.088","PERIOD":"1435.809","APOAPSIS":"38994.417","PERIAPSIS":"32567.489","OBJECT_TYPE":"PAYLOAD","RCS_SIZE":"LARGE","COUNTRY_CODE":"JPN","LAUNCH_DATE":"2017-06-01","SITE":"TNSTA","DECAY_DATE":null,"FILE":"5201404","GP_ID":"323690304","TLE_LINE0":"0 QZS-2","TLE_LINE1":"1 42738U 17028A   26137.61346770 -.00000182  00000-0  00000-0 0  9997","TLE_LINE2":"2 42738  39.4747 243.6045 0762223 268.9413  83.6963  1.00291921  7321"},{"CCSDS_OMM_VERS":"3.0","COMMENT":"GENERATED VIA SPACE-TRACK.ORG API","CREATION_DATE":"2026-05-17T22:46:34","ORIGINATOR":"18 SPCS","OBJECT_NAME":"QZS-2","OBJECT_ID":"2017-028A","CENTER_NAME":"EARTH","REF_FRAME":"TEME","TIME_SYSTEM":"UTC","MEAN_ELEMENT_THEORY":"SGP4","EPOCH":"2026-05-17T14:43:23.609280","MEAN_MOTION":"1.00291921","ECCENTRICITY":"0.07622230","INCLINATION":"39.4747","RA_OF_ASC_NODE":"243.6045","ARG_OF_PERICENTER":"268.9413","MEAN_ANOMALY":"83.6963","EPHEMERIS_TYPE":"0","CLASSIFICATION_TYPE":"U","NORAD_CAT_ID":"42738","ELEMENT_SET_NO":"999","REV_AT_EPOCH":"732","BSTAR":"0.00000000000000","MEAN_MOTION_DOT":"-0.00000182","MEAN_MOTION_DDOT":"0.0000000000000","SEMIMAJOR_AXIS":"42159.088","PERIOD":"1435.809","APOAPSIS":"38994.416","PERIAPSIS":"32567.490","OBJECT_TYPE":"PAYLOAD","RCS_SIZE":"LARGE","COUNTRY_CODE":"JPN","LAUNCH_DATE":"2017-06-01","SITE":"TNSTA","DECAY_DATE":null,"FILE":"5199974","GP_ID":"323640236","TLE_LINE0":"0 QZS-2","TLE_LINE1":"1 42738U 17028A   26137.61346770 -.00000182  00000-0  00000+0 0  9996","TLE_LINE2":"2 42738  39.4747 243.6045 0762223 268.9413  83.6963  1.00291921  7321"},{"CCSDS_OMM_VERS":"3.0","COMMENT":"GENERATED VIA SPACE-TRACK.ORG API","CREATION_DATE":"2026-05-18T23:26:32","ORIGINATOR":"18 SPCS","OBJECT_NAME":"QZS-2","OBJECT_ID":"2017-028A","CENTER_NAME":"EARTH","REF_FRAME":"TEME","TIME_SYSTEM":"UTC","MEAN_ELEMENT_THEORY":"SGP4","EPOCH":"2026-05-18T14:36:32.385024","MEAN_MOTION":"1.00291579","ECCENTRICITY":"0.07616400","INCLINATION":"39.4728","RA_OF_ASC_NODE":"243.5900","ARG_OF_PERICENTER":"268.9537","MEAN_ANOMALY":"83.0393","EPHEMERIS_TYPE":"0","CLASSIFICATION_TYPE":"U","NORAD_CAT_ID":"42738","ELEMENT_SET_NO":"999","REV_AT_EPOCH":"733","BSTAR":"0.00000000000000","MEAN_MOTION_DOT":"-0.00000187","MEAN_MOTION_DDOT":"0.0000000000000","SEMIMAJOR_AXIS":"42159.184","PERIOD":"1435.813","APOAPSIS":"38992.061","PERIAPSIS":"32570.037","OBJECT_TYPE":"PAYLOAD","RCS_SIZE":"LARGE","COUNTRY_CODE":"JPN","LAUNCH_DATE":"2017-06-01","SITE":"TNSTA","DECAY_DATE":null,"FILE":"5202527","GP_ID":"323734060","TLE_LINE0":"0 QZS-2","TLE_LINE1":"1 42738U 17028A   26138.60870816 -.00000187  00000-0  00000+0 0  9994","TLE_LINE2":"2 42738  39.4728 243.5900 0761640 268.9537  83.0393  1.00291579  7339"},{"CCSDS_OMM_VERS":"3.0","COMMENT":"GENERATED VIA SPACE-TRACK.ORG API","CREATION_DATE":"2026-05-19T02:42:52","ORIGINATOR":"18 SPCS","OBJECT_NAME":"QZS-2","OBJECT_ID":"2017-028A","CENTER_NAME":"EARTH","REF_FRAME":"TEME","TIME_SYSTEM":"UTC","MEAN_ELEMENT_THEORY":"SGP4","EPOCH":"2026-05-18T14:36:32.385888","MEAN_MOTION":"1.00291579","ECCENTRICITY":"0.07616398","INCLINATION":"39.4728","RA_OF_ASC_NODE":"243.5900","ARG_OF_PERICENTER":"268.9538","MEAN_ANOMALY":"83.0393","EPHEMERIS_TYPE":"0","CLASSIFICATION_TYPE":"U","NORAD_CAT_ID":"42738","ELEMENT_SET_NO":"999","REV_AT_EPOCH":"733","BSTAR":"0.00000000000000","MEAN_MOTION_DOT":"-0.00000187","MEAN_MOTION_DDOT":"0.0000000000000","SEMIMAJOR_AXIS":"42159.184","PERIOD":"1435.813","APOAPSIS":"38992.060","PERIAPSIS":"32570.038","OBJECT_TYPE":"PAYLOAD","RCS_SIZE":"LARGE","COUNTRY_CODE":"JPN","LAUNCH_DATE":"2017-06-01","SITE":"TNSTA","DECAY_DATE":null,"FILE":"5203002","GP_ID":"323760026","TLE_LINE0":"0 QZS-2","TLE_LINE1":"1 42738U 17028A   26138.60870817 -.00000187  00000-0  00000-0 0  9996","TLE_LINE2":"2 42738  39.4728 243.5900 0761640 268.9538  83.0393  1.00291579  7330"},{"CCSDS_OMM_VERS":"3.0","COMMENT":"GENERATED VIA SPACE-TRACK.ORG API","CREATION_DATE":"2026-05-21T03:02:41","ORIGINATOR":"18 SPCS","OBJECT_NAME":"QZS-2","OBJECT_ID":"2017-028A","CENTER_NAME":"EARTH","REF_FRAME":"TEME","TIME_SYSTEM":"UTC","MEAN_ELEMENT_THEORY":"SGP4","EPOCH":"2026-05-20T14:27:38.627424","MEAN_MOTION":"1.00291062","ECCENTRICITY":"0.07612680","INCLINATION":"39.4697","RA_OF_ASC_NODE":"243.5610","ARG_OF_PERICENTER":"268.9737","MEAN_ANOMALY":"82.9237","EPHEMERIS_TYPE":"0","CLASSIFICATION_TYPE":"U","NORAD_CAT_ID":"42738","ELEMENT_SET_NO":"999","REV_AT_EPOCH":"735","BSTAR":"0.00000000000000","MEAN_MOTION_DOT":"-0.00000207","MEAN_MOTION_DDOT":"0.0000000000000","SEMIMAJOR_AXIS":"42159.329","PERIOD":"1435.821","APOAPSIS":"38990.649","PERIAPSIS":"32571.739","OBJECT_TYPE":"PAYLOAD","RCS_SIZE":"LARGE","COUNTRY_CODE":"JPN","LAUNCH_DATE":"2017-06-01","SITE":"TNSTA","DECAY_DATE":null,"FILE":"5207306","GP_ID":"324027690","TLE_LINE0":"0 QZS-2","TLE_LINE1":"1 42738U 17028A   26140.60253041 -.00000207  00000-0  00000-0 0  9996","TLE_LINE2":"2 42738  39.4697 243.5610 0761268 268.9737  82.9237  1.00291062  7354"},{"CCSDS_OMM_VERS":"3.0","COMMENT":"GENERATED VIA SPACE-TRACK.ORG API","CREATION_DATE":"2026-05-22T03:00:41","ORIGINATOR":"18 SPCS","OBJECT_NAME":"QZS-2","OBJECT_ID":"2017-028A","CENTER_NAME":"EARTH","REF_FRAME":"TEME","TIME_SYSTEM":"UTC","MEAN_ELEMENT_THEORY":"SGP4","EPOCH":"2026-05-21T14:25:38.742240","MEAN_MOTION":"1.00290802","ECCENTRICITY":"0.07611329","INCLINATION":"39.4687","RA_OF_ASC_NODE":"243.5464","ARG_OF_PERICENTER":"268.9838","MEAN_ANOMALY":"83.4780","EPHEMERIS_TYPE":"0","CLASSIFICATION_TYPE":"U","NORAD_CAT_ID":"42738","ELEMENT_SET_NO":"999","REV_AT_EPOCH":"736","BSTAR":"0.00000000000000","MEAN_MOTION_DOT":"-0.00000219","MEAN_MOTION_DDOT":"0.0000000000000","SEMIMAJOR_AXIS":"42159.402","PERIOD":"1435.825","APOAPSIS":"38990.157","PERIAPSIS":"32572.376","OBJECT_TYPE":"PAYLOAD","RCS_SIZE":"LARGE","COUNTRY_CODE":"JPN","LAUNCH_DATE":"2017-06-01","SITE":"TNSTA","DECAY_DATE":null,"FILE":"5208707","GP_ID":"324257497","TLE_LINE0":"0 QZS-2","TLE_LINE1":"1 42738U 17028A   26141.60114285 -.00000219  00000-0  00000-0 0  9996","TLE_LINE2":"2 42738  39.4687 243.5464 0761133 268.9838  83.4780  1.00290802  7364"},{"CCSDS_OMM_VERS":"3.0","COMMENT":"GENERATED VIA SPACE-TRACK.ORG API","CREATION_DATE":"2026-05-21T21:06:57","ORIGINATOR":"18 SPCS","OBJECT_NAME":"QZS-2","OBJECT_ID":"2017-028A","CENTER_NAME":"EARTH","REF_FRAME":"TEME","TIME_SYSTEM":"UTC","MEAN_ELEMENT_THEORY":"SGP4","EPOCH":"2026-05-21T14:25:38.742240","MEAN_MOTION":"1.00290802","ECCENTRICITY":"0.07611330","INCLINATION":"39.4687","RA_OF_ASC_NODE":"243.5463","ARG_OF_PERICENTER":"268.9838","MEAN_ANOMALY":"83.4780","EPHEMERIS_TYPE":"0","CLASSIFICATION_TYPE":"U","NORAD_CAT_ID":"42738","ELEMENT_SET_NO":"999","REV_AT_EPOCH":"736","BSTAR":"0.00000000000000","MEAN_MOTION_DOT":"-0.00000219","MEAN_MOTION_DDOT":"0.0000000000000","SEMIMAJOR_AXIS":"42159.402","PERIOD":"1435.825","APOAPSIS":"38990.158","PERIAPSIS":"32572.375","OBJECT_TYPE":"PAYLOAD","RCS_SIZE":"LARGE","COUNTRY_CODE":"JPN","LAUNCH_DATE":"2017-06-01","SITE":"TNSTA","DECAY_DATE":null,"FILE":"5207659","GP_ID":"324139647","TLE_LINE0":"0 QZS-2","TLE_LINE1":"1 42738U 17028A   26141.60114285 -.00000219  00000-0  00000+0 0  9995","TLE_LINE2":"2 42738  39.4687 243.5463 0761133 268.9838  83.4780  1.00290802  7363"}]